NORAD_CAT_ID,OBJECT_NAME,OBJECT_TYPE,EPOCH,MEAN_MOTION,ECCENTRICITY,INCLINATION,RA_OF_ASC_NODE,ARG_OF_PERICENTER,MEAN_ANOMALY,BSTAR,MEAN_MOTION_DOT,MEAN_MOTION_DDOT,TLE_LINE0,TLE_LINE1,TLE_LINE2,SEMIMAJOR_AXIS,PERIOD,APOGEE,PERIGEE,DECAYED
54788.0,STARLINK-5399,PAYLOAD,2023-08-29 01:16:18,15.0884217,0.0001429,53.2157,215.354,90.8058,269.3098,1.3887e-05,-6.7e-07,0.0,0 STARLINK-5399,1 54788U 22175AG  23241.05299034 -.00000067  00000-0  13887-4 0  9998,2 54788  53.2157 215.3540 0001429  90.8058 269.3098 15.08842170 38535,6917.874,95.437,540.727,538.75,0.0
54788.0,STARLINK-5399,PAYLOAD,2023-08-29 07:37:50,15.08847575,0.0001432,53.2157,214.1649,90.8993,269.2163,5.8197e-05,6.39e-06,0.0,0 STARLINK-5399,1 54788U 22175AG  23241.31794486  .00000639  00000-0  58197-4 0  9995,2 54788  53.2157 214.1649 0001432  90.8993 269.2163 15.08847575 38574,6917.857,95.437,540.713,538.732,0.0
54788.0,STARLINK-5399,PAYLOAD,2023-08-29 15:34:46,15.08837125,0.0001349,53.215,212.678,82.0259,278.0887,-3.7853e-05,-8.9e-06,0.0,0 STARLINK-5399,1 54788U 22175AG  23241.64915385 -.00000890  00000-0 -37853-4 0  9991,2 54788  53.2150 212.6780 0001349  82.0259 278.0887 15.08837125 38628,6917.889,95.438,540.687,538.821,0.0
54788.0,STARLINK-5399,PAYLOAD,2023-08-30 15:25:34,15.08837435,0.0001493,53.2165,208.2182,85.1756,274.9406,5.3484e-05,5.63e-06,0.0,0 STARLINK-5399,1 54788U 22175AG  23242.64275468  .00000563  00000-0  53484-4 0  9996,2 54788  53.2165 208.2182 0001493  85.1756 274.9406 15.08837435 40930,6917.888,95.438,540.786,538.72,0.0
54788.0,STARLINK-5399,PAYLOAD,2023-08-31 04:08:38,15.08842826,0.0001369,53.2163,205.8384,89.116,270.9989,7.7311e-05,9.43e-06,0.0,0 STARLINK-5399,1 54788U 22175AG  23243.17266989  .00000943  00000-0  77311-4 0  9990,2 54788  53.2163 205.8384 0001369  89.1160 270.9989 15.08842826 38850,6917.872,95.437,540.684,538.79,0.0
54788.0,STARLINK-5399,PAYLOAD,2023-08-31 23:13:15,15.08861076,0.0001482,53.216,202.2761,15.5497,344.5541,0.00010835,1.438e-05,0.0,0 STARLINK-5399,1 54788U 22175AG  23243.96753878  .00001438  00000-0  10835-3 0  9992,2 54788  53.2160 202.2761 0001482  15.5497 344.5541 15.08861076 38972,6917.816,95.436,540.706,538.656,0.0
54788.0,STARLINK-5399,PAYLOAD,2023-09-01 03:59:26,15.08837088,0.0001424,53.2156,201.3792,89.9843,270.1312,8.6862e-05,1.095e-05,0.0,0 STARLINK-5399,1 54788U 22175AG  23244.16627468  .00001095  00000-0  86862-4 0  9993,2 54788  53.2156 201.3792 0001424  89.9843 270.1312 15.08837088 39008,6917.889,95.438,540.739,538.769,0.0
54788.0,STARLINK-5399,PAYLOAD,2023-09-01 21:28:40,15.08789407,0.0001732,53.227,198.1161,275.7513,84.3281,0.00071691,0.00011124,0.0,0 STARLINK-5399,1 54788U 22175AG  23244.89491892  .00011124  00000-0  71691-3 0  9990,2 54788  53.2270 198.1161 0001732 275.7513  84.3281 15.08789407 41272,6918.035,95.441,541.098,538.702,0.0
54788.0,STARLINK-5399,PAYLOAD,2023-09-02 07:00:59,15.0884334,0.0001817,53.215,196.3248,92.7151,267.4049,8.3074e-05,1.034e-05,0.0,0 STARLINK-5399,1 54788U 22175AG  23245.29235065  .00001034  00000-0  83074-4 0  9991,2 54788  53.2150 196.3248 0001817  92.7151 267.4049 15.08843340 39173,6917.87,95.437,540.992,538.478,0.0
54788.0,STARLINK-5399,PAYLOAD,2023-09-02 19:44:04,15.08837338,0.0001977,53.2145,193.945,96.2115,263.9103,2.7095e-05,1.43e-06,0.0,0 STARLINK-5399,1 54788U 22175AG  23245.82227722  .00000143  00000-0  27095-4 0  9992,2 54788  53.2145 193.9450 0001977  96.2115 263.9103 15.08837338 41413,6917.889,95.438,541.121,538.386,0.0
54788.0,STARLINK-5399,PAYLOAD,2023-09-03 00:30:14,15.08830573,0.0001373,53.2147,193.0521,100.2414,259.8733,5.8839e-05,6.48e-06,0.0,0 STARLINK-5399,1 54788U 22175AG  23246.02099996  .00000648  00000-0  58839-4 0  9995,2 54788  53.2147 193.0521 0001373 100.2414 259.8733 15.08830573 39282,6917.909,95.438,540.724,538.824,0.0
54788.0,STARLINK-5399,PAYLOAD,2023-09-03 05:16:23,15.08839713,0.0001448,53.2165,192.1619,96.0542,264.0616,4.912e-05,4.94e-06,0.0,0 STARLINK-5399,1 54788U 22175AG  23246.21971610  .00000494  00000-0  49120-4 0  9990,2 54788  53.2165 192.1619 0001448  96.0542 264.0616 15.08839713 39314,6917.881,95.438,540.748,538.745,0.0
54788.0,STARLINK-5399,PAYLOAD,2023-09-04 05:07:11,15.08834511,0.0001415,53.2168,187.7004,90.6994,269.416,-4.1955e-05,-9.55e-06,0.0,0 STARLINK-5399,1 54788U 22175AG  23247.21332640 -.00000955  00000-0 -41955-4 0  9997,2 54788  53.2168 187.7004 0001415  90.6994 269.4160 15.08834511 39460,6917.897,95.438,540.741,538.783,0.0
54788.0,STARLINK-5399,PAYLOAD,2023-09-05 06:33:20,15.08844229,0.0001335,53.217,182.9403,86.2776,273.8369,9.1635e-05,1.171e-05,0.0,0 STARLINK-5399,1 54788U 22175AG  23248.27315940  .00001171  00000-0  91635-4 0  9997,2 54788  53.2170 182.9403 0001335  86.2776 273.8369 15.08844229 39628,6917.867,95.437,540.656,538.809,0.0
54788.0,STARLINK-5399,PAYLOAD,2023-09-06 04:48:44,15.08842818,0.0001363,53.2171,178.7778,76.5545,283.5599,0.00012182,1.652e-05,0.0,0 STARLINK-5399,1 54788U 22175AG  23249.20052033  .00001652  00000-0  12182-3 0  9995,2 54788  53.2171 178.7778 0001363  76.5545 283.5599 15.08842818 41925,6917.872,95.437,540.68,538.794,0.0
54788.0,STARLINK-5399,PAYLOAD,2023-09-06 19:07:13,15.08841932,0.000151,53.2175,176.1026,72.6749,287.4408,-1.6685e-05,-5.54e-06,0.0,0 STARLINK-5399,1 54788U 22175AG  23249.79668588 -.00000554  00000-0 -16685-4 0  9992,2 54788  53.2175 176.1026 0001510  72.6749 287.4408 15.08841932 42013,6917.874,95.437,540.784,538.695,0.0
54788.0,STARLINK-5399,PAYLOAD,2023-09-07 01:28:45,15.08845678,0.0001475,53.2167,174.9126,88.4848,271.6313,5.5204e-06,-2e-06,0.0,0 STARLINK-5399,1 54788U 22175AG  23250.06164111 -.00000200  00000-0  55204-5 0  9995,2 54788  53.2167 174.9126 0001475  88.4848 271.6313 15.08845678 42051,6917.863,95.437,540.748,538.708,0.0
54788.0,STARLINK-5399,PAYLOAD,2023-09-07 18:58:00,15.08840613,0.0001489,53.2168,171.6427,94.9228,265.1934,3.0653e-05,2e-06,0.0,0 STARLINK-5399,1 54788U 22175AG  23250.79028207  .00000200  00000-0  30653-4 0  9999,2 54788  53.2168 171.6427 0001489  94.9228 265.1934 15.08840613 42162,6917.879,95.438,540.774,538.713,0.0
54788.0,STARLINK-5399,PAYLOAD,2023-09-08 01:19:32,15.08865561,0.0001538,53.2173,170.4528,99.5991,260.5175,-0.00028094,-4.76e-05,0.0,0 STARLINK-5399,1 54788U 22175AG  23251.05523809 -.00004760  00000-0 -28094-3 0  9999,2 54788  53.2173 170.4528 0001538  99.5991 260.5175 15.08865561 40040,6917.802,95.436,540.731,538.603,0.0
54788.0,STARLINK-5399,PAYLOAD,2023-09-08 18:48:47,15.08837813,0.0001513,53.217,167.1825,93.5898,266.5267,2.5899e-05,1.24e-06,0.0,0 STARLINK-5399,1 54788U 22175AG  23251.78388387  .00000124  00000-0  25899-4 0  9998,2 54788  53.2170 167.1825 0001513  93.5898 266.5267 15.08837813 40152,6917.887,95.438,540.799,538.705,0.0
54788.0,STARLINK-5399,PAYLOAD,2023-09-09 04:21:05,15.08842995,0.0001342,53.2168,165.3972,98.8155,261.2989,5.7329e-05,6.25e-06,0.0,0 STARLINK-5399,1 54788U 22175AG  23252.18131903  .00000625  00000-0  57329-4 0  9992,2 54788  53.2168 165.3972 0001342  98.8155 261.2989 15.08842995 42372,6917.871,95.437,540.665,538.808,0.0
54788.0,STARLINK-5399,PAYLOAD,2023-09-10 01:01:07,15.08839168,0.0001352,53.2177,161.5352,94.8105,265.3042,5.1807e-05,5.37e-06,0.0,0 STARLINK-5399,1 54788U 22175AG  23253.04244426  .00000537  00000-0  51807-4 0  9990,2 54788  53.2177 161.5352 0001352  94.8105 265.3042 15.08839168 40342,6917.883,95.438,540.683,538.813,0.0
54788.0,STARLINK-5399,PAYLOAD,2023-09-10 04:11:53,15.08842802,0.0001261,53.2169,160.9379,82.4191,277.6945,6.2025e-05,6.99e-06,0.0,0 STARLINK-5399,1 54788U 22175AG  23253.17492179  .00000699  00000-0  62025-4 0  9997,2 54788  53.2169 160.9379 0001261  82.4191 277.6945 15.08842802 42521,6917.872,95.437,540.609,538.864,0.0
54788.0,STARLINK-5399,PAYLOAD,2023-09-11 10:24:13,15.08838767,0.0001146,53.2163,155.2847,72.9533,287.1584,3.011e-05,1.91e-06,0.0,0 STARLINK-5399,1 54788U 22175AG  23254.43348807  .00000191  00000-0  30110-4 0  9992,2 54788  53.2163 155.2847 0001146  72.9533 287.1584 15.08838767 40559,6917.884,95.438,540.542,538.956,0.0
54788.0,STARLINK-5399,PAYLOAD,2023-09-12 02:18:04,15.08846503,0.0001375,53.2164,152.3131,81.9452,278.1697,7.7176e-05,9.41e-06,0.0,0 STARLINK-5399,1 54788U 22175AG  23255.09588388  .00000941  00000-0  77176-4 0  9991,2 54788  53.2164 152.3131 0001375  81.9452 278.1697 15.08846503 40651,6917.861,95.437,540.677,538.774,0.0
54788.0,STARLINK-5399,PAYLOAD,2023-09-12 18:11:56,15.08841746,0.0001139,53.2165,149.3389,90.4976,269.6147,5.0363e-06,-2.08e-06,0.0,0 STARLINK-5399,1 54788U 22175AG  23255.75828889 -.00000208  00000-0  50363-5 0  9994,2 54788  53.2165 149.3389 0001139  90.4976 269.6147 15.08841746 40757,6917.875,95.437,540.528,538.952,0.0
54788.0,STARLINK-5399,PAYLOAD,2023-09-12 21:22:42,15.08808577,0.0001619,53.2168,148.7422,84.3699,275.7478,0.00048625,7.453e-05,0.0,0 STARLINK-5399,1 54788U 22175AG  23255.89077203  .00007453  00000-0  48625-3 0  9999,2 54788  53.2168 148.7422 0001619  84.3699 275.7478 15.08808577 42930,6917.976,95.44,540.961,538.721,0.0
54788.0,STARLINK-5399,PAYLOAD,2023-09-13 00:33:28,15.08848648,0.0001232,53.2168,148.1515,86.7232,273.3901,6.3114e-05,7.17e-06,0.0,0 STARLINK-5399,1 54788U 22175AG  23256.02324438  .00000717  00000-0  63114-4 0  9997,2 54788  53.2168 148.1515 0001232  86.7232 273.3901 15.08848648 40797,6917.854,95.437,540.571,538.867,0.0
54788.0,STARLINK-5399,PAYLOAD,2023-09-13 21:13:28,15.08849094,0.0001393,53.217,144.2853,88.1,272.0152,0.00010729,1.42e-05,0.0,0 STARLINK-5399,1 54788U 22175AG  23256.88435983  .00001420  00000-0  10729-3 0  9994,2 54788  53.2170 144.2853 0001393  88.1000 272.0152 15.08849094 43084,6917.853,95.437,540.681,538.754,0.0
54788.0,STARLINK-5399,PAYLOAD,2023-09-14 01:59:37,15.0885998,0.0001203,53.2169,143.3918,94.9013,265.2116,0.00010802,1.433e-05,0.0,0 STARLINK-5399,1 54788U 22175AG  23257.08307082  .00001433  00000-0  10802-3 0  9991,2 54788  53.2169 143.3918 0001203  94.9013 265.2116 15.08859980 40955,6917.819,95.436,540.517,538.852,0.0
